GLOBALSTAR M094         
1 39074U 13005C   25109.89721227 -.00000083  00000+0  11750-3 0  9995
2 39074  51.9989 359.5916 0000976  99.8596 260.2381 12.62269875565019
GLOBALSTAR M096         
1 39075U 13005D   25110.30639518 -.00000088  00000+0  87233-4 0  9990
2 39075  52.0090  46.8129 0000778  84.8646 275.2309 12.62270262564339
GLOBALSTAR M078         
1 39076U 13005E   25110.51715655 -.00000108  00000+0 -25834-4 0  9994
2 39076  51.9846 130.7594 0001134  62.2701 297.8280 12.62261474562842
GLOBALSTAR M095         
1 39077U 13005F   25110.46455983 -.00000098  00000+0  33115-4 0  9992
2 39077  51.9773 128.1460 0000753  89.0495 271.0458 12.62269278562849
GLOBALSTAR M087         
1 52888U 22064A   25110.81191927 -.00000072  00000+0  18010-3 0  9994
2 52888  51.9787 268.4911 0000919 104.9550 255.1418 12.62271157138129
